NORAD_CAT_ID,OBJECT_NAME,OBJECT_TYPE,EPOCH,MEAN_MOTION,ECCENTRICITY,INCLINATION,RA_OF_ASC_NODE,ARG_OF_PERICENTER,MEAN_ANOMALY,BSTAR,MEAN_MOTION_DOT,MEAN_MOTION_DDOT,TLE_LINE0,TLE_LINE1,TLE_LINE2,SEMIMAJOR_AXIS,PERIOD,APOGEE,PERIGEE,DECAYED
47762,STARLINK-2180,PAYLOAD,2022-07-16 10:07:56,15.06409647,0.0001567,53.0555,87.4177,53.9026,306.2108,0.00018633,2.496e-05,0.0,0 STARLINK-2180,1 47762U 21017AS  22197.42217662  .00002496  00000-0  18633-3 0  9993,2 47762  53.0555  87.4177 0001567  53.9026 306.2108 15.06409647 76082,6925.319,95.592,548.269,546.099,0.0
47762,STARLINK-2180,PAYLOAD,2022-07-16 11:43:28,15.06407248,0.0001622,53.0556,87.1195,57.7088,302.4058,0.00020069,2.71e-05,0.0,0 STARLINK-2180,1 47762U 21017AS  22197.48852525  .00002710  00000-0  20069-3 0  9997,2 47762  53.0556  87.1195 0001622  57.7088 302.4058 15.06407248 76742,6925.326,95.592,548.315,546.068,0.0
47762,STARLINK-2180,PAYLOAD,2022-07-16 18:05:38,15.0639971,0.0001512,53.0559,85.929,55.9601,304.1532,0.000149,1.939e-05,0.0,0 STARLINK-2180,1 47762U 21017AS  22197.75391722  .00001939  00000-0  14900-3 0  9993,2 47762  53.0559  85.9290 0001512  55.9601 304.1532 15.06399710 76139,6925.349,95.592,548.262,546.1669999999998,0.0
47762,STARLINK-2180,PAYLOAD,2022-07-16 21:16:42,15.06402861,0.0001496,53.0557,85.3327,57.1632,302.9501,0.00017871,2.382e-05,0.0,0 STARLINK-2180,1 47762U 21017AS  22197.88660775  .00002382  00000-0  17871-3 0  9997,2 47762  53.0557  85.3327 0001496  57.1632 302.9501 15.06402861 76809,6925.34,95.592,548.241,546.169,0.0
47762,STARLINK-2180,PAYLOAD,2022-07-17 11:36:34,15.06399468,0.0001676999999999,53.0555,82.6516,60.4385,299.6771,0.0001221,1.538e-05,0.0,0 STARLINK-2180,1 47762U 21017AS  22198.48373315  .00001538  00000-0  12210-3 0  9999,2 47762  53.0555  82.6516 0001677  60.4385 299.6771 15.06399468 76898,6925.35,95.592,548.377,546.054,0.0
47762,STARLINK-2180,PAYLOAD,2022-07-17 17:58:44,15.06393138,0.0001614,53.0557,81.4611,57.1639,302.9505,5.3152e-05,5.1e-06,0.0,0 STARLINK-2180,1 47762U 21017AS  22198.74912666  .00000510  00000-0  53152-4 0  9996,2 47762  53.0557  81.4611 0001614  57.1639 302.9505 15.06393138 76283,6925.37,95.593,548.352,546.117,0.0
47762,STARLINK-2180,PAYLOAD,2022-07-18 11:29:41,15.06389804,0.0001511,53.0558,78.1844,61.6399,298.4743,-0.00011934,-2.058e-05,0.0,0 STARLINK-2180,1 47762U 21017AS  22199.47894862 -.00002058  00000-0 -11934-3 0  9996,2 47762  53.0558  78.1844 0001511  61.6399 298.4743 15.06389804 77047,6925.38,95.593,548.2909999999998,546.198,0.0
47762,STARLINK-2180,PAYLOAD,2022-07-18 19:27:22,15.06393867,0.000162,53.0559,76.6956,61.5759,298.5393,-3.3865e-06,-3.32e-06,0.0,0 STARLINK-2180,1 47762U 21017AS  22199.81067862 -.00000332  00000-0 -33865-5 0  9998,2 47762  53.0559  76.6956 0001620  61.5759 298.5393 15.06393867 76444,6925.3669999999975,95.593,548.354,546.11,0.0
47762,STARLINK-2180,PAYLOAD,2022-07-18 21:02:54,15.06396128,0.0001575,53.0559,76.3971,62.7334,297.3816,3.1117e-05,1.82e-06,0.0,0 STARLINK-2180,1 47762U 21017AS  22199.87702308  .00000182  00000-0  31117-4 0  9993,2 47762  53.0559  76.3971 0001575  62.7334 297.3816 15.06396128 77103,6925.36,95.592,548.316,546.135,0.0
47762,STARLINK-2180,PAYLOAD,2022-07-19 00:13:59,15.06401537,0.0001644,53.0559,75.8016,62.9961,297.1196,8.9967e-06,-1.48e-06,0.0,0 STARLINK-2180,1 47762U 21017AS  22200.00971404 -.00000148  00000-0  89967-5 0  9996,2 47762  53.0559  75.8016 0001644  62.9961 297.1196 15.06401537 76471,6925.344,95.592,548.347,546.07,0.0
47762,STARLINK-2180,PAYLOAD,2022-07-19 08:11:41,15.06401009,0.0001683,53.0559,74.3125,64.3117,295.8046,5.1998000000000014e-06,-2.04e-06,0.0,0 STARLINK-2180,1 47762U 21017AS  22200.34144869 -.00000204  00000-0  51998-5 0  9996,2 47762  53.0559  74.3125 0001683  64.3117 295.8046 15.06401009 77179,6925.345,95.592,548.376,546.045,0.0
47762,STARLINK-2180,PAYLOAD,2022-07-19 19:20:27,15.06395116,0.0001654,53.0559,72.2274,64.3519,295.7641,9.9951e-05,1.207e-05,0.0,0 STARLINK-2180,1 47762U 21017AS  22200.80587947  .00001207  00000-0  99951-4 0  9998,2 47762  53.0559  72.2274 0001654  64.3519 295.7641 15.06395116 76591,6925.364000000001,95.592,548.374,546.0830000000002,0.0
47762,STARLINK-2180,PAYLOAD,2022-07-19 22:31:32,15.06404703,0.0001827,53.0558,71.6341,61.2011,298.9161,8.107600000000001e-05,9.26e-06,0.0,0 STARLINK-2180,1 47762U 21017AS  22200.93856847  .00000926  00000-0  81076-4 0  9996,2 47762  53.0558  71.6341 0001827  61.2011 298.9161 15.06404703 77263,6925.334,95.592,548.464,545.934,0.0
47762,STARLINK-2180,PAYLOAD,2022-07-20 08:04:46,15.06402803,0.0001723,53.0559,69.8449,60.3839,299.7322,0.00022383,3.054e-05,0.0,0 STARLINK-2180,1 47762U 21017AS  22201.33664785  .00003054  00000-0  22383-3 0  9999,2 47762  53.0559  69.8449 0001723  60.3839 299.7322 15.06402803 77329,6925.34,95.592,548.398,546.012,0.0
47762,STARLINK-2180,PAYLOAD,2022-07-20 19:13:33,15.06398747,0.0001539,53.0558,67.7609,69.3443,290.7711,0.00012931,1.645e-05,0.0,0 STARLINK-2180,1 47762U 21017AS  22201.80107942  .00001645  00000-0  12931-3 0  9990,2 47762  53.0558  67.7609 0001539  69.3443 290.7711 15.06398747 76747,6925.352,95.592,548.283,546.1519999999998,0.0
47762,STARLINK-2180,PAYLOAD,2022-07-20 20:49:05,15.06397168,0.0001543,53.0558,67.4632,71.0223,289.0933,0.00011492,1.4300000000000004e-05,0.0,0 STARLINK-2180,1 47762U 21017AS  22201.86742807  .00001430  00000-0  11492-3 0  9994,2 47762  53.0558  67.4632 0001543  71.0223 289.0933 15.06397168 77408,6925.357,95.592,548.2909999999998,546.154,0.0
47762,STARLINK-2180,PAYLOAD,2022-07-21 00:00:10,15.06400254,0.0001673,53.0564,66.867,60.9258,299.1899,8.0657e-05,9.2e-06,0.0,0 STARLINK-2180,1 47762U 21017AS  22202.00012107  .00000920  00000-0  80657-4 0  9997,2 47762  53.0564  66.8670 0001673  60.9258 299.1899 15.06400254 77425,6925.348000000001,95.592,548.371,546.054,0.0
47762,STARLINK-2180,PAYLOAD,2022-07-21 19:06:40,15.06380967,0.0001742,53.0543,63.2912,58.5088,301.6071,-6.5888e-05,-1.262e-05,0.0,0 STARLINK-2180,1 47762U 21017AS  22202.79630471 -.00001262  00000-0 -65888-4 0  9994,2 47762  53.0543  63.2912 0001742  58.5088 301.6071 15.06380967 77545,6925.406999999997,95.593,548.4780000000002,546.065,0.0
47762,STARLINK-2180,PAYLOAD,2022-07-21 23:53:17,15.0638612,0.0001583,53.0561,62.3985,60.8021,299.3126,-0.00013653,-2.314e-05,0.0,0 STARLINK-2180,1 47762U 21017AS  22202.99534512 -.00002314  00000-0 -13653-3 0  9996,2 47762  53.0561  62.3985 0001583  60.8021 299.3126 15.06386120 77575,6925.391,95.593,548.352,546.16,0.0
47762,STARLINK-2180,PAYLOAD,2022-07-22 20:35:18,15.06394967,0.0001568,53.0561,58.5266,61.3266,298.7881,2.1073000000000006e-05,3.2e-07,0.0,0 STARLINK-2180,1 47762U 21017AS  22203.85785042  .00000032  00000-0  21073-4 0  9997,2 47762  53.0561  58.5266 0001568  61.3266 298.7881 15.06394967 77708,6925.364000000001,95.592,548.315,546.143,0.0
47762,STARLINK-2180,PAYLOAD,2022-07-22 23:46:23,15.06393829,0.0001535,53.0564,57.9318,64.1388,295.9759,0.00012353,1.559e-05,0.0,0 STARLINK-2180,1 47762U 21017AS  22203.99054410  .00001559  00000-0  12353-3 0  9995,2 47762  53.0564  57.9318 0001535  64.1388 295.9759 15.06393829 77071,6925.3669999999975,95.593,548.2959999999998,546.169,0.0
47762,STARLINK-2180,PAYLOAD,2022-07-23 09:19:37,15.06397987,0.0001591,53.0557,56.1451,61.5985,298.5164,0.00026818,3.715e-05,0.0,0 STARLINK-2180,1 47762U 21017AS  22204.38862844  .00003715  00000-0  26818-3 0  9994,2 47762  53.0557  56.1451 0001591  61.5985 298.5164 15.06397987 77784,6925.355,95.592,548.322,546.118,0.0
47762,STARLINK-2180,PAYLOAD,2022-07-23 20:28:24,15.06409752,0.0001561999999999,53.0555,54.0599,61.2727,298.8418,0.00065135,9.436e-05,0.0,0 STARLINK-2180,1 47762U 21017AS  22204.85305625  .00009436  00000-0  65135-3 0  9996,2 47762  53.0555  54.0599 0001562  61.2727 298.8418 15.06409752 77858,6925.319,95.592,548.265,546.102,0.0
47762,STARLINK-2180,PAYLOAD,2022-07-23 23:39:28,15.06415081,0.0001587,53.0554,53.4644,60.6674,299.4473,0.00069357,0.00010068,0.0,0 STARLINK-2180,1 47762U 21017AS  22204.98574821  .00010068  00000-0  69357-3 0  9999,2 47762  53.0554  53.4644 0001587  60.6674 299.4473 15.06415081 77223,6925.302,95.591,548.266,546.068,0.0
47762,STARLINK-2180,PAYLOAD,2022-07-24 13:59:19,15.06413118,0.0001655,53.0547,50.7837,61.0422,299.0733,0.00024341,3.347e-05,0.0,0 STARLINK-2180,1 47762U 21017AS  22205.58286510  .00003347  00000-0  24341-3 0  9997,2 47762  53.0547  50.7837 0001655  61.0422 299.0733 15.06413118 77966,6925.308000000001,95.591,548.319,546.0269999999998,0.0
47762,STARLINK-2180,PAYLOAD,2022-07-24 20:21:28,15.06410463,0.0001705,53.0557,49.5945,49.7824,310.3314,0.00011784,1.475e-05,0.0,0 STARLINK-2180,1 47762U 21017AS  22205.84825141  .00001475  00000-0  11784-3 0  9992,2 47762  53.0557  49.5945 0001705  49.7824 310.3314 15.06410463 78006,6925.316,95.591,548.362,546.001,0.0
47762,STARLINK-2180,PAYLOAD,2022-07-24 23:32:33,15.06399651,0.0001563,53.055,48.9967,62.6722,297.4426,-0.00022135,-3.577e-05,0.0,0 STARLINK-2180,1 47762U 21017AS  22205.98094664 -.00003577  00000-0 -22135-3 0  9994,2 47762  53.0550  48.9967 0001563  62.6722 297.4426 15.06399651 77372,6925.35,95.592,548.297,546.132,0.0
47762,STARLINK-2180,PAYLOAD,2022-07-25 13:52:25,15.06396334,0.0001764999999999,53.0554,46.3187,49.7024,310.4119,-0.00015184,-2.542e-05,0.0,0 STARLINK-2180,1 47762U 21017AS  22206.57806976 -.00002542  00000-0 -15184-3 0  9994,2 47762  53.0554  46.3187 0001765  49.7024 310.4119 15.06396334 78110,6925.36,95.592,548.447,546.002,0.0
47762,STARLINK-2180,PAYLOAD,2022-07-25 20:14:34,15.06402727,0.00016,53.0549,45.1248,61.4912,298.6238,-2.4295e-06,-3.18e-06,0.0,0 STARLINK-2180,1 47762U 21017AS  22206.84345498 -.00000318  00000-0 -24295-5 0  9995,2 47762  53.0549  45.1248 0001600  61.4912 298.6238 15.06402727 78151,6925.34,95.592,548.313,546.097,0.0
